{
    "links": {
        "self": "http://www.neowsapp.com/rest/v1/neo/3154521?api_key=iIulBulltgU6a56xZRHN4H3l9WmuAYTsLGpBGhQ2"
    },
    "id": "3154521",
    "neo_reference_id": "3154521",
    "name": "(2003 LW1)",
    "designation": "2003 LW1",
    "nasa_jpl_url": "http://ssd.jpl.nasa.gov/sbdb.cgi?sstr=3154521",
    "absolute_magnitude_h": 23.2,
    "estimated_diameter": {
        "kilometers": {
            "estimated_diameter_min": 0.0608912622,
            "estimated_diameter_max": 0.1361570015
        },
        "meters": {
            "estimated_diameter_min": 60.8912622106,
            "estimated_diameter_max": 136.1570015386
        },
        "miles": {
            "estimated_diameter_min": 0.0378360645,
            "estimated_diameter_max": 0.0846040122
        },
        "feet": {
            "estimated_diameter_min": 199.7744887109,
            "estimated_diameter_max": 446.7093369279
        }
    },
    "is_potentially_hazardous_asteroid": false,
    "close_approach_data": [
        {
            "close_approach_date": "2003-06-09",
            "close_approach_date_full": "2003-Jun-09 09:41",
            "epoch_date_close_approach": 1055151660000,
            "relative_velocity": {
                "kilometers_per_second": "9.9644627676",
                "kilometers_per_hour": "35872.0659633375",
                "miles_per_hour": "22289.5067648305"
            },
            "miss_distance": {
                "astronomical": "0.0394791111",
                "lunar": "15.3573742179",
                "kilometers": "5905990.930053357",
                "miles": "3669812.5924640466"
            },
            "orbiting_body": "Earth"
        },
        {
            "close_approach_date": "2006-08-13",
            "close_approach_date_full": "2006-Aug-13 21:06",
            "epoch_date_close_approach": 1155503160000,
            "relative_velocity": {
                "kilometers_per_second": "18.799027691",
                "kilometers_per_hour": "67676.4996874326",
                "miles_per_hour": "42051.5450418939"
            },
            "miss_distance": {
                "astronomical": "0.4507640153",
                "lunar": "175.3472019517",
                "kilometers": "67433336.561527411",
                "miles": "41901132.3580078318"
            },
            "orbiting_body": "Earth"
        }
    ],
    "orbital_data": {
        "orbit_id": "15",
        "orbit_determination_date": "2017-04-06 09:14:03",
        "first_observation_date": "2003-06-03",
        "last_observation_date": "2003-06-15",
        "data_arc_in_days": 12,
        "observations_used": 76,
        "orbit_uncertainty": "8",
        "minimum_orbit_intersection": ".0387299",
        "jupiter_tisserand_invariant": "3.526",
        "epoch_osculation": "2452796.5",
        "eccentricity": ".5101063072669366",
        "semi_major_axis": "2.120982056319765",
        "inclination": "12.41042052691195",
        "ascending_node_longitude": "75.21493536973728",
        "orbital_period": "1128.246301195654",
        "perihelion_distance": "1.039055731791056",
        "perihelion_argument": "198.7350676133295",
        "aphelion_distance": "3.202908380848475",
        "perihelion_time": "2452813.457458917580",
        "mean_anomaly": "354.5892264801938",
        "mean_motion": ".3190792645351388",
        "equinox": "J2000",
        "orbit_class": {
            "orbit_class_type": "AMO",
            "orbit_class_description": "Near-Earth asteroid orbits similar to that of 1221 Amor",
            "orbit_class_range": "1.017 AU < q (perihelion) < 1.3 AU"
        }
    },
    "is_sentry_object": false
}